     2.10           N: GPS NAV DATA                         RINEX VERSION / TYPE
teqc  2012Apr13     CORS-ADM Account    20121014 23:45:06UTCPGM / RUN BY / DATE
Solaris x86 5.10|AMD64|cc SC5.8 -xarch=amd64|=+|=+          COMMENT
     2              NAVIGATION DATA                         COMMENT
RINGO/GLOBAL        NATIONAL GEODETIC SURVEY                COMMENT
    1.5832D-08  0.0000D+00 -1.1921D-07  0.0000D+00          ION ALPHA
    1.1059D+05  0.0000D+00 -2.6214D+05  6.5536D+04          ION BETA
   -1.862645149231D-09-7.105427357601D-15   405504     1709 DELTA-UTC: A0,A1,T,W
                                                            END OF HEADER
 6 12 10  9 22  0  0.0 4.887226969000D-04-9.436007530890D-12 0.000000000000D+00
    3.000000000000D+00-8.437500000000D+01 5.090926347150D-09 5.608262454190D-01
   -4.393979907040D-06 7.346980390140D-03 8.011236786840D-06 5.153687879560D+03
    2.520000000000D+05 1.471489667890D-07 1.564093961760D+00-1.005828380590D-07
    9.388073530490D-01 2.136875000000D+02-4.306872825740D-01-8.468210133120D-09
   -3.535861534120D-11 1.000000000000D+00 1.709000000000D+03 0.000000000000D+00
    2.000000000000D+00 0.000000000000D+00-5.122274160390D-09 3.000000000000D+00
    2.592000000000D+05
 6 12 10 10  0  0  0.0 4.886547103520D-04-9.436007530890D-12 0.000000000000D+00
    1.500000000000D+01-7.481250000000D+01 4.950920562410D-09 1.610834658140D+00
   -3.894791007040D-06 7.347182254310D-03 8.147209882740D-06 5.153690122600D+03
    2.592000000000D+05 7.078051567080D-08 1.564034526330D+00 1.136213541030D-07
    9.388073866960D-01 2.100312500000D+02-4.305205113760D-01-8.280702346040D-09
   -1.471489874390D-10 1.000000000000D+00 1.709000000000D+03 0.000000000000D+00
    2.000000000000D+00 0.000000000000D+00-5.122274160390D-09 1.500000000000D+01
    2.592000000000D+05
 6 12 10 10  2  0  0.0 4.885867238050D-04-9.436007530890D-12 0.000000000000D+00
    1.600000000000D+01-6.734375000000D+01 4.940562937130D-09 2.661088863040D+00
   -3.503635525700D-06 7.348019862550D-03 7.802620530130D-06 5.153688352580D+03
    2.664000000000D+05-1.490116119380D-08 1.563974783680D+00 1.285225152970D-07
    9.388063977630D-01 2.150000000000D+02-4.306006207700D-01-8.254629552740D-09
   -1.139333172090D-10 1.000000000000D+00 1.709000000000D+03 0.000000000000D+00
    2.000000000000D+00 0.000000000000D+00-5.122274160390D-09 1.600000000000D+01
    2.618580000000D+05
 6 12 10 10  4  0  0.0 4.885187372560D-04-9.436007530890D-12 0.000000000000D+00
    3.600000000000D+01-6.740625000000D+01 4.885203488330D-09-2.571874967640D+00
   -3.395602107050D-06 7.347365841270D-03 7.610768079760D-06 5.153689590450D+03
    2.736000000000D+05-1.005828380590D-07 1.563915335080D+00 1.005828380590D-07
    9.388055726770D-01 2.218437500000D+02-4.306472995600D-01-8.273201754920D-09
   -9.750406143550D-11 1.000000000000D+00 1.709000000000D+03 0.000000000000D+00
    2.000000000000D+00 0.000000000000D+00-5.122274160390D-09 3.600000000000D+01
    2.664180000000D+05
 6 12 10 10  6  0  0.0 4.884507507090D-04-9.436007530890D-12 0.000000000000D+00
    3.900000000000D+01-7.681250000000D+01 4.949848975140D-09-1.521862482150D+00
   -3.967434167860D-06 7.347575156020D-03 7.515773177150D-06 5.153687427520D+03
    2.808000000000D+05-1.154839992520D-07 1.563854986780D+00-2.793967723850D-08
    9.388046861490D-01 2.250000000000D+02-4.304853091780D-01-8.369634763030D-09
   -5.607376368790D-11 1.000000000000D+00 1.709000000000D+03 0.000000000000D+00
    2.000000000000D+00 0.000000000000D+00-5.122274160390D-09 3.900000000000D+01
    2.739300000000D+05
 6 12 10 10  8  0  0.0 4.883827641610D-04-9.436007530890D-12 0.000000000000D+00
    4.000000000000D+01-8.343750000000D+01 5.001279751950D-09-4.717056417590D-01
   -4.345551133160D-06 7.348009501580D-03 7.532536983490D-06 5.153687641140D+03
    2.880000000000D+05 6.519258022310D-08 1.563795647900D+00-2.216547727590D-07
    9.388035597020D-01 2.259062500000D+02-4.304665414020D-01-8.431779788900D-09
   -2.571535686210D-10 1.000000000000D+00 1.709000000000D+03 0.000000000000D+00
    2.000000000000D+00 0.000000000000D+00-5.122274160390D-09 4.000000000000D+01
    2.808180000000D+05
 6 12 10 10 10  0  0.0 4.883147776130D-04-9.436007530890D-12 0.000000000000D+00
    5.500000000000D+01-8.765625000000D+01 5.141642741490D-09 5.785244644950D-01
   -4.753470420840D-06 7.348007173280D-03 7.448717951780D-06 5.153687593460D+03
    2.952000000000D+05 1.396983861920D-07 1.563734838780D+00-6.332993507380D-08
    9.388010683530D-01 2.217812500000D+02-4.305209707320D-01-8.523926484320D-09
   -3.203704875740D-10 1.000000000000D+00 1.709000000000D+03 0.000000000000D+00
    2.000000000000D+00 0.000000000000D+00-5.122274160390D-09 5.500000000000D+01
    2.914380000000D+05
 6 12 10 10 12  0  0.0 4.882467910650D-04-9.436007530890D-12 0.000000000000D+00
    5.700000000000D+01-8.000000000000D+01 5.151643158040D-09 1.628564419190D+00
   -3.969296813010D-06 7.348075509070D-03 7.532536983490D-06 5.153689353940D+03
    3.024000000000D+05 1.098960638050D-07 1.563674374910D+00 6.891787052160D-08
    9.387989237150D-01 2.175000000000D+02-4.303842961480D-01-8.414636217660D-09
   -3.810873023870D-10 1.000000000000D+00 1.709000000000D+03 0.000000000000D+00
    2.000000000000D+00 0.000000000000D+00-5.122274160390D-09 5.700000000000D+01
    2.952180000000D+05
 6 12 10 10 14  0  0.0 4.881783388560D-04-9.436007530890D-12 0.000000000000D+00
    5.800000000000D+01-7.234375000000D+01 5.197716505760D-09 2.678818612390D+00
   -3.635883331300D-06 7.348922081290D-03 7.487833499910D-06 5.153687587740D+03
    3.096000000000D+05-5.587935447690D-08 1.563613020130D+00 2.179294824600D-07
    9.387967951690D-01 2.221875000000D+02-4.304618103250D-01-8.359991084330D-09
   -2.160804291890D-10 1.000000000000D+00 1.709000000000D+03 0.000000000000D+00
    2.000000000000D+00 0.000000000000D+00-5.122274160390D-09 5.800000000000D+01
    3.024180000000D+05
 6 12 10 10 16  0  0.0 4.881103523080D-04-9.436007530890D-12 0.000000000000D+00
    5.900000000000D+01-7.065625000000D+01 5.144857161090D-09-2.554141539050D+00
   -3.557652235030D-06 7.348551065660D-03 7.305294275280D-06 5.153688310620D+03
    3.168000000000D+05-1.601874828340D-07 1.563552873720D+00 9.685754776000D-08
    9.387956292230D-01 2.276875000000D+02-4.305095380270D-01-8.317489313960D-09
   -1.664355041350D-10 0.000000000000D+00 1.709000000000D+03 0.000000000000D+00
    2.000000000000D+00 0.000000000000D+00-5.122274160390D-09 5.900000000000D+01
    3.096000000000D+05
 6 12 10 10 17 59 44.0 4.880409687760D-04-9.436007530890D-12 0.000000000000D+00
    3.700000000000D+01-7.825000000000D+01 5.210217146610D-09-1.506432437090D+00
   -4.243105649950D-06 7.348609273320D-03 7.178634405140D-06 5.153686613080D+03
    3.239840000000D+05-8.195638656620D-08 1.563491521860D+00-1.378357410430D-07
    9.387941311950D-01 2.318750000000D+02-4.303751602240D-01-8.511426230480D-09
   -5.000208233570D-11 1.000000000000D+00 1.709000000000D+03 0.000000000000D+00
    2.000000000000D+00 0.000000000000D+00-5.122274160390D-09 3.700000000000D+01
    3.231900000000D+05
 6 12 10 10 18  0  0.0 4.880423657600D-04-9.436007530890D-12 0.000000000000D+00
    6.700000000000D+01-7.825000000000D+01 5.210217026450D-09-1.504098557570D+00
   -4.243105649950D-06 7.348611485210D-03 7.180497050280D-06 5.153686603550D+03
    3.240000000000D+05-8.195638656620D-08 1.563491379960D+00-1.378357410430D-07
    9.387941311950D-01 2.318750000000D+02-4.303752567770D-01-8.511425963630D-09
   -4.964492505330D-11 0.000000000000D+00 1.709000000000D+03 0.000000000000D+00
    2.000000000000D+00 0.000000000000D+00-5.122274160390D-09 6.700000000000D+01
    3.168000000000D+05
 6 12 10 10 19 59 44.0 4.879729822280D-04-9.436007530890D-12 0.000000000000D+00
    5.600000000000D+01-8.387500000000D+01 5.216645782010D-09-4.563353349640D-01
   -4.481524229050D-06 7.348758867010D-03 6.793066859240D-06 5.153685821530D+03
    3.311840000000D+05 7.450580596920D-08 1.563430588390D+00-1.937150955200D-07
    9.387935255470D-01 2.367187500000D+02-4.302937327410D-01-8.562857090060D-09
   -1.371485702780D-10 1.000000000000D+00 1.709000000000D+03 0.000000000000D+00
    2.000000000000D+00 0.000000000000D+00-5.122274160390D-09 5.600000000000D+01
    3.240000000000D+05
 6 12 10 10 22  0  0.0 4.879045300190D-04-9.436007530890D-12 0.000000000000D+00
    6.100000000000D+01-8.975000000000D+01 5.198073527170D-09 5.962228459550D-01
   -4.686415195460D-06 7.349161314780D-03 6.902962923050D-06 5.153686542510D+03
    3.384000000000D+05 1.713633537290D-07 1.563368769860D+00-9.685754776000D-08
    9.387922747520D-01 2.350625000000D+02-4.303405066210D-01-8.586072297590D-09
   -1.771502389220D-10 1.000000000000D+00 1.709000000000D+03 0.000000000000D+00
    2.000000000000D+00 0.000000000000D+00-5.122274160390D-09 6.100000000000D+01
    3.312000000000D+05
 6 12 10 11  0  0  0.0 4.878360778090D-04-9.436007530890D-12 0.000000000000D+00
    6.600000000000D+01-8.165625000000D+01 5.065925456900D-09 1.646251879970D+00
   -4.248693585400D-06 7.349246065130D-03 7.087364792820D-06 5.153688480380D+03
    3.456000000000D+05 8.009374141690D-08 1.563308531290D+00 1.173466444020D-07
    9.387912492470D-01 2.305000000000D+02-4.301926699720D-01-8.399278605960D-09
   -2.935836573850D-10 1.000000000000D+00 1.709000000000D+03 0.000000000000D+00
    2.000000000000D+00 0.000000000000D+00-5.122274160390D-09 6.600000000000D+01
    3.384000000000D+05
 7 12 10  9 20  0  0.0 1.314757391810D-04 4.433786671140D-12 0.000000000000D+00
    6.900000000000D+01 4.487500000000D+01 3.995880515360D-09 2.376307663710D+00
    2.376735210420D-06 6.032293895260D-03 7.929280400280D-06 5.153725177760D+03
    2.448000000000D+05-1.434236764910D-07-4.530259509440D-01 3.725290298460D-08
    9.760341767470D-01 2.349062500000D+02-2.961943321790D+00-7.878185215300D-09
    1.114332098820D-10 1.000000000000D+00 1.709000000000D+03 0.000000000000D+00
    2.000000000000D+00 0.000000000000D+00-1.071020960810D-08 6.900000000000D+01
    2.592000000000D+05
